O3B MPOWER F1           
1 54755U 22174A   23231.27706698 -.00000020  00000+0  00000+0 0  9999
2 54755   0.0422  12.1279 0004118 207.1608  83.4142  5.00111889 13678
